INTELSAT 35E (IS-35E)   
1 42818U 17041A   26171.25350247 -.00000243  00000+0  00000+0 0  9999
2 42818   0.0184  31.7498 0002119  57.9673 235.5091  1.00273121 32849
COSMOS 2520             
1 42907U 17046A   26171.25829687  .00000132  00000+0  00000+0 0  9998
2 42907   0.0458  95.4065 0000867  28.4578 282.5989  1.00272047 32422
TDRS 13                 
1 42915U 17047A   26171.24711682 -.00000106  00000+0  00000+0 0  9994
2 42915   3.4525   2.8317 0014644 106.4458 236.7065  1.00271913 32378
QZS-3 (MICHIBIKI-3)     
1 42917U 17048A   26171.27460958 -.00000352  00000+0  00000+0 0  9990
2 42917   0.0562 161.6436 0001982 282.4433  50.2662  1.00274737 32299
AMAZONAS 5              
1 42934U 17053A   26171.12497531 -.00000288  00000+0  00000+0 0  9994
2 42934   0.0322 325.1798 0001971  73.4746 213.6749  1.00272263 32072
ASIASAT 9               
1 42942U 17057A   26170.77451896 -.00000365  00000+0  00000+0 0  9997
2 42942   0.0136 103.3432 0002544 331.7850 233.7914  1.00269249 31883
INTELSAT 37E (IS-37E)   
1 42950U 17059A   26171.24581682 -.00000146  00000+0  00000+0 0  9995
2 42950   0.0178  18.6343 0002616  94.2328 226.0924  1.00271121 32090
BSAT-4A                 
1 42951U 17059B   26170.99838896 -.00000355  00000+0  00000+0 0  9991
2 42951   0.0337 353.9231 0004056  76.8596 306.6773  1.00270250 31821
QZS-4 (MICHIBIKI-4)     
1 42965U 17062A   26169.35012919 -.00000360  00000+0  00000+0 0  9994
2 42965  40.1070 343.4662 0745019 271.8091 274.2172  1.00250086 31812
SES-11 (ECHOSTAR 105)   
1 42967U 17063A   26171.19511110 -.00000094  00000+0  00000+0 0  9993
2 42967   0.0150   3.4880 0002806  71.2598 158.9435  1.00271074 31750
KOREASAT 5A             
1 42984U 17067A   26171.27174957 -.00000363  00000+0  00000+0 0  9998
2 42984   0.0155 312.7125 0000645 107.0831  59.6647  1.00273360 31560
ALCOMSAT 1              
1 43039U 17078A   26171.17323030 -.00000191  00000+0  00000+0 0  9998
2 43039   0.0236 268.9941 0002312 172.8017 224.1398  1.00272455 31329
SBIRS GEO-3 (USA 282)   
1 43162U 18009A   26171.21785947  .00000122  00000+0  00000+0 0  9997
2 43162   2.1867  12.2784 0001973  68.0161 107.1593  1.00271739 30872
AL YAH 3                
1 43174U 18012A   26171.24547014 -.00000161  00000+0  00000+0 0  9992
2 43174   1.5608  83.0741 0003873   3.8613 249.7665  1.00272236 30876
SES-14                  
1 43175U 18012B   26171.16863694 -.00000283  00000+0  00000+0 0  9994
2 43175   0.0176  27.7377 0001235  43.1327 210.7211  1.00279470  7056
GOES 17                 
1 43226U 18022A   26171.12991311 -.00000187  00000+0  00000+0 0  9999
2 43226   0.9457  85.6586 0000578  27.7610 112.1610  1.00269494 30454
HISPASAT 30W-6          
1 43228U 18023A   26171.06481344 -.00000221  00000+0  00000+0 0  9994
2 43228   0.0445  43.1237 0005760  29.8638 188.6152  1.00271051 30436
SUPERBIRD-B3            
1 43271U 18033A   26171.18378300 -.00000097  00000+0  00000+0 0  9994
2 43271   0.0269 290.3251 0001159 169.0509  37.1877  1.00270559 30098
HYLAS 4                 
1 43272U 18033B   26171.02887554 -.00000239  00000+0  00000+0 0  9992
2 43272   0.0189  20.7021 0001123  65.0638 159.3513  1.00271055 30095
IRNSS-1I                
1 43286U 18035A   26166.83981681  .00000062  00000+0  00000+0 0  9991
2 43286  28.7520  74.2167 0017811 181.5598   5.5147  1.00272046 30064
USA 283                 
1 43339U 18036A   26170.53794801  .00000000  00000+0  00000+0 0  9991
2 43339   0.0091  53.6723 0000086  77.7836 104.0737  1.00268506 25313
COSMOS 2526             
1 43432U 18037A   26171.06065722 -.00000350  00000+0  00000+0 0  9997
2 43432   0.0263  46.0823 0000401 148.6835 223.4101  1.00272755 29982
APSTAR-6C               
1 43450U 18041A   26170.91602319 -.00000323  00000+0  00000+0 0  9994
2 43450   0.0298 323.2572 0001040  26.6457  21.9948  1.00273385 29830
BANGABANDHUSAT-1        
1 43463U 18044A   26171.27304957 -.00000367  00000+0  00000+0 0  9996
2 43463   0.0359  91.6313 0001858   7.1985  27.0445  1.00273459 29749
SES-12                  
1 43488U 18049A   26171.02620094 -.00000274  00000+0  00000+0 0  9991
2 43488   0.0142  15.9791 0000728 263.0914  93.5979  1.00268663 29443
FENGYUN 2H              
1 43491U 18050A   26171.05129718 -.00000135  00000+0  00000+0 0  9993
2 43491   3.0397  79.0417 0001894 138.0026 149.0721  1.00269328 29461
BEIDOU-2 IGSO-7         
1 43539U 18057A   26170.91426345 -.00000031  00000+0  00000+0 0  9998
2 43539  55.1954 163.0329 0105088 238.0240 305.9372  1.00250534 29156
TELSTAR 19V             
1 43562U 18059A   26171.23689010 -.00000285  00000+0  00000+0 0  9993
2 43562   0.0150 115.7037 0002623 358.7077 176.3068  1.00269978 29174
TELKOM 4 (MERAH PUTIH)  
1 43587U 18064A   26171.05693053  .00000000  00000+0  00000+0 0  9992
2 43587   0.0164  10.4994 0001483 104.0882 282.1841  1.00269772 28905
TELSTAR 18V             
1 43611U 18069A   26171.27677626 -.00000299  00000+0  00000+0 0  9998
2 43611   0.0158 299.0001 0001817 141.1630  65.9528  1.00271609 28679
AZERSPACE 2 (IS-38)     
1 43632U 18074A   26171.18709704  .00000132  00000+0  00000+0 0  9995
2 43632   0.0176  12.5072 0001411  75.0400 293.3134  1.00271425 28472
